GLOBALSTAR M035         
1 25851U 99037A   25043.96245161 -.00000029  00000+0  13039-2 0  9996
2 25851  51.9988 332.0010 0013741 138.2049 301.5790 11.04535756 82535
GLOBALSTAR M032         
1 25852U 99037B   25043.63631793 -.00000042  00000+0  80184-3 0  9992
2 25852  51.9937 166.5147 0010300 320.4705  39.5343 11.19057130120843
GLOBALSTAR M051         
1 25853U 99037C   25043.96173908 -.00000040  00000+0  77890-3 0  9996
2 25853  51.9832 340.5729 0001177   6.9886 353.0941 11.42202144118192
GLOBALSTAR M030         
1 25854U 99037D   25043.73353153 -.00000125  00000+0 -10618-2 0  9993
2 25854  51.9867 155.1396 0004196 176.0616 184.0234 11.55102888135661
GLOBALSTAR M048         
1 25872U 99041A   25043.91132003 -.00000033  00000+0  10081-2 0  9998
2 25872  51.9352 270.9260 0012992 334.2948 122.8043 11.33854637110882
GLOBALSTAR M026         
1 25873U 99041B   25044.14512487 -.00000036  00000+0  10330-2 0  9993
2 25873  52.0007  90.8550 0001614  69.4689 322.6268 11.06828188134956
GLOBALSTAR M028         
1 25875U 99041D   25043.79083709 -.00000097  00000+0  22718-4 0  9997
2 25875  51.9604 203.9909 0063820 160.5437 199.7880 12.50577059174613
